ID,Address,Suburb,Price,Type,Date,Rooms,Bathroom,Car,LandSize,Age,Latitude,Longitude,train_station_id,distance_to_train_stat,travel_min_to_CBD,over_priced?,crime_A_average,crime_B_average,crime_C_average
ID346983115,2/79 Barkly St,ST KILDA,700000.0,u,28/05/2016,2,1.0,1.0,0.0,24.0,-37.8626,144.9818,19957,1157.71,15.5,1,1862.3333333333333,8393.666666666666,831.3333333333334
ID434775059,2115/18 Mt Alexander Rd,TRAVANCORE,341500.0,u,15/07/2017,2,1.0,1.0,16000.0,7.0,-37.78466,144.93829,19971,397.9,19.0,0,1021.6666666666666,5132.0,325.0
ID821479682,64 Adeney Av,KEW,2660000.0,h,12/08/2017,5,2.0,2.0,696.0,79.0,-37.80347,145.0489,19903,2124.12,17.904761904761905,0,288.0,712.0,75.66666666666667
ID325593977,4/23 Carmen St,NEWPORT,740000.0,h,15/07/2017,3,1.0,2.0,204.0,29.0,-37.84234,144.86622,19994,1528.4,16.310344827586206,0,84.33333333333333,293.3333333333333,23.0
ID759851279,30 Davidson St,RESERVOIR,925000.0,h,24/09/2016,5,3.0,4.0,922.0,5.0,-37.6961,144.9865,20008,2240.05,38.22222222222222,0,1118.3333333333333,2578.6666666666665,260.3333333333333
ID328200509,16 Cain Ct,ALTONA,1005000.0,h,22/07/2017,3,1.0,2.0,636.0,34.0,-37.86317,144.83927,19927,540.84,24.428571428571427,0,2494.6666666666665,11307.0,1410.0
ID695466875,33 Walker St,MOONEE PONDS,1400000.0,h,28/08/2016,4,2.0,2.0,595.0,119.0,-37.7641,144.9265,20038,670.16,22.0,1,389.3333333333333,708.6666666666666,87.66666666666667
ID689505630,4/15 Stapley Cr,ALTONA NORTH,451500.0,u,15/07/2017,3,1.0,1.0,180.0,54.0,-37.83648,144.86296000000004,19994,1942.78,16.310344827586206,0,2494.6666666666665,11307.0,1410.0
ID803155780,1/43 Abbotsford St,ABBOTSFORD,505000.0,u,27/05/2017,2,1.0,1.0,0.0,49.0,-37.80206,145.00015,19975,596.32,13.235294117647058,0,1214.6666666666667,5603.666666666667,375.3333333333333
ID490123164,145/38 Mt Alexander Rd,TRAVANCORE,315000.0,u,28/05/2016,2,1.0,1.0,0.0,7.0,-37.7847,144.9383,19971,393.36,19.0,0,1306.6666666666667,6853.333333333333,397.3333333333333
ID300889203,28 Claire Wy,TARNEIT,586000.0,h,8/07/2017,4,2.0,2.0,462.0,7.0,-37.85162,144.66522,47648,3378.04,32.09090909090909,0,1479.3333333333333,4398.666666666667,502.0
ID540202986,26 Ayr St,ASCOT VALE,1430000.0,h,16/04/2016,6,2.0,1.0,461.0,119.0,-37.78,144.9295,20040,816.98,18.0,0,3308.3333333333335,15607.0,1809.6666666666667
ID220271840,106/26 Shuter St,MOONEE PONDS,565000.0,u,10/09/2016,3,2.0,1.0,0.0,18.0,-37.7672,144.9209,20038,225.96,22.0,0,389.3333333333333,708.6666666666666,87.66666666666667
ID266456825,17 Station Rd,WILLIAMSTOWN,1085000.0,h,8/10/2016,4,1.0,2.0,458.0,39.0,-37.8571,144.8915,19993,215.19,20.857142857142858,0,1388.3333333333333,5449.666666666667,526.6666666666666
ID895933928,581 Waterdale Rd,HEIDELBERG WEST,532000.0,h,27/05/2017,2,2.0,1.0,220.0,69.0,-37.73549000000001,145.0487,19936,1741.7,31.75,0,1173.6666666666667,8523.666666666666,974.6666666666666
ID158096238,2b Roberts Rd,AIRPORT WEST,850000.0,u,3/06/2017,3,2.0,1.0,307.0,59.0,-37.72649000000001,144.88488999999996,20033,3362.37,34.0,0,1214.6666666666667,5603.666666666667,375.3333333333333
ID460267908,4/6 Pine Av,ELWOOD,730000.0,u,22/07/2017,2,2.0,1.0,0.0,6.0,-37.88678,144.98855,19954,1108.04,21.5,0,1666.0,9333.666666666666,523.0
ID904065676,30 Pinrush Rd,BROOKFIELD,456000.0,h,29/07/2017,4,2.0,2.0,576.0,9.0,-37.69104,144.54532,19980,2757.18,39.6,0,179.0,352.3333333333333,42.666666666666664
ID273581446,41 Saltley St,SOUTH KINGSVILLE,855000.0,t,27/11/2016,3,2.0,2.0,337.0,44.0,-37.8288,144.8681,19995,1581.26,14.333333333333334,0,1268.6666666666667,2855.6666666666665,270.3333333333333
ID484855437,37/151 Fitzroy St,ST KILDA,571000.0,u,12/06/2016,2,1.0,1.0,7458.0,18.0,-37.8591,144.97899999999996,19957,1194.8,15.5,0,1862.3333333333333,8393.666666666666,831.3333333333334
ID415562564,258 Nicholson St,SEDDON,920000.0,h,16/07/2016,3,2.0,1.0,309.0,109.0,-37.807,144.898,19997,302.91,10.357142857142858,0,1118.3333333333333,2578.6666666666665,260.3333333333333
ID429178069,268 Faraday St,CARLTON,435000.0,u,13/08/2016,1,1.0,1.0,0.0,19.0,-37.7982,144.9651,19842,1325.19,4.7444444444444445,0,128.66666666666666,339.0,41.333333333333336
ID144984475,37 Lee St,DEER PARK,589000.0,h,9/09/2017,3,2.0,2.0,544.0,23.0,-37.7687,144.75833,19982,1590.51,23.90909090909091,0,326.6666666666667,1234.6666666666667,99.0
ID200878382,216 Sunshine Av,KEALBA,572000.0,h,23/09/2017,3,1.0,2.0,554.0,44.0,-37.73522,144.82044,20002,2091.27,31.375,0,591.6666666666666,1189.6666666666667,177.33333333333334
ID945558283,59 David St,LALOR,705500.0,h,24/06/2017,3,1.0,4.0,670.0,59.0,-37.67328,145.02918,20006,1341.45,42.22222222222222,0,1360.6666666666667,6408.666666666667,691.6666666666666
ID582861125,29 Mabel St,CAMBERWELL,2216000.0,h,8/04/2017,4,2.0,0.0,670.0,89.0,-37.8378,145.089,19850,1367.47,26.666666666666668,0,3767.6666666666665,18925.0,2042.3333333333333
ID472967867,25 Dickmann St,RICHMOND,1361000.0,h,25/02/2017,3,2.0,1.0,99.0,119.0,-37.8249,144.9976,19908,660.24,9.538461538461538,1,885.0,1901.0,227.66666666666666
ID312855701,8 Plym St,BENTLEIGH,1107000.0,h,22/04/2017,4,2.0,2.0,478.0,23.0,-37.9321,145.0361,19937,257.01,38.266666666666666,0,959.0,4476.666666666667,324.0
ID878488632,4/44 Victoria St,COBURG,653000.0,u,10/09/2016,2,1.0,1.0,129.0,7.0,-37.7422,144.9606,19965,241.41,32.0,0,1460.3333333333333,7810.666666666667,676.6666666666666
ID338474596,29 Holywood Gr,CARNEGIE,1370000.0,h,12/08/2017,3,1.0,2.0,485.0,13.0,-37.88553,145.05012,19920,747.03,23.451612903225808,0,3767.6666666666665,18925.0,2042.3333333333333
ID249478547,4 Sharp Gr,COBURG NORTH,765000.0,h,8/10/2016,2,1.0,2.0,563.0,94.0,-37.723,144.96,19963,257.44,36.0,0,1460.3333333333333,7810.666666666667,676.6666666666666
ID196682498,143 Burnley St,RICHMOND,777500.0,h,14/05/2016,2,1.0,1.0,151.0,119.0,-37.8171,145.009,19906,1171.31,11.904761904761905,0,1118.3333333333333,2578.6666666666665,260.3333333333333
ID624937962,4 Melliodora Pl,YALLAMBIE,731000.0,h,18/06/2016,3,2.0,2.0,566.0,28.0,-37.7195,145.1034,19986,1662.42,43.9,0,1388.3333333333333,5449.666666666667,526.6666666666666
ID939009721,15 Lilac St,BENTLEIGH EAST,1292000.0,h,29/04/2017,4,1.0,2.0,587.0,69.0,-37.9194,145.05700000000004,19939,1770.47,35.15384615384615,0,959.0,4476.666666666667,324.0
ID619148236,13 Bridge Rd,MELTON SOUTH,341000.0,h,15/07/2017,3,2.0,4.0,578.0,8.0,-37.71432,144.57431,19980,1237.49,39.6,0,50.333333333333336,68.0,12.0
ID327273625,7 Fairbairn Rd,SUNSHINE WEST,520000.0,h,3/06/2017,3,2.0,2.0,535.0,39.0,-37.79414000000001,144.81855,20021,1406.33,24.555555555555557,0,2532.3333333333335,5455.0,713.0
ID939889501,3/2 Kardella St,MALVERN EAST,707500.0,u,18/06/2016,3,1.0,1.0,170.0,44.0,-37.8689,145.0504,19943,1177.59,21.26923076923077,0,884.0,2291.3333333333335,376.6666666666667
ID581726409,4/4 Powell St,SOUTH YARRA,401500.0,u,15/07/2017,1,1.0,1.0,10.0,59.0,-37.84157,144.98935,19959,435.74,12.571428571428571,0,1245.0,3886.0,447.6666666666667
ID232692373,2/21 Lillimur Rd,ORMOND,454000.0,u,1/07/2017,1,1.0,1.0,1006.0,9.0,-37.90164,145.04138999999995,19941,234.43,32.15384615384615,0,298.0,735.0,154.0
ID907936620,61 Dent St,ASHBURTON,2650000.0,h,3/09/2016,4,3.0,2.0,753.0,4.0,-37.8669,145.0767,19847,304.08,31.666666666666668,0,2184.3333333333335,12675.333333333334,826.6666666666666
ID479845003,33 Hockey La,ASCOT VALE,1255000.0,h,15/10/2016,3,2.0,2.0,308.0,99.0,-37.7759,144.9338,20039,1056.09,20.0,0,3308.3333333333335,15607.0,1809.6666666666667
ID253462348,160 Bent St,NORTHCOTE,1420000.0,h,28/05/2016,4,1.0,1.0,465.0,129.0,-37.7662,144.9889,20016,693.82,21.3,0,184.0,440.6666666666667,48.666666666666664
ID692127960,2/44 Richardson St,ESSENDON,825000.0,h,10/12/2016,3,1.0,3.0,477.0,64.0,-37.7499,144.9127,20037,746.74,24.0,0,444.3333333333333,2256.0,119.66666666666667
ID167671153,27 Norfolk Cr,BUNDOORA,710000.0,h,15/07/2017,3,1.0,1.0,540.0,51.0,-37.70636,145.05462,19983,2534.03,34.75,0,684.0,1695.6666666666667,161.0
ID950083085,5/25 Ashley St,RESERVOIR,300000.0,u,26/07/2016,2,1.0,1.0,87.0,49.0,-37.7174,145.0016,20010,478.58,34.2,0,1118.3333333333333,2578.6666666666665,260.3333333333333
ID309963963,18 Boase St,BRUNSWICK,700000.0,h,3/06/2017,2,1.0,1.0,61.0,12.0,-37.766,144.96076000000005,19968,217.59,25.333333333333332,0,941.3333333333334,5813.0,575.6666666666666
ID655153011,53 Mary St,KEW,1410000.0,h,26/07/2016,3,2.0,1.0,442.0,27.0,-37.8046,145.0382,19904,1883.94,15.666666666666666,0,369.3333333333333,971.0,95.33333333333333
ID654832636,9 Vine Gr,CARNEGIE,1630000.0,h,22/07/2017,2,1.0,1.0,618.0,44.0,-37.89347,145.04772,19942,638.37,29.23076923076923,0,3767.6666666666665,18925.0,2042.3333333333333
ID273301106,639 Punt Rd,SOUTH YARRA,1855500.0,h,8/07/2017,4,2.0,1.0,176.0,139.0,-37.83986,144.98598,19959,580.93,12.571428571428571,0,1245.0,3886.0,447.6666666666667
ID249117583,34 Booth St,PRESTON,890000.0,h,24/09/2016,2,1.0,3.0,493.0,69.0,-37.74,144.9821,20012,1628.39,28.3,0,923.3333333333334,7218.333333333333,438.0
ID604631795,17 Quarry Cct,COBURG,1020000.0,h,24/06/2017,4,2.0,2.0,441.0,17.0,-37.73572,144.97256000000004,19964,889.93,34.0,0,1097.6666666666667,5916.0,553.3333333333334
ID200377088,271 Edward St,BRUNSWICK EAST,1105000.0,h,3/06/2017,2,1.0,2.0,173.0,129.0,-37.77524,144.97529,19969,1458.49,24.333333333333332,0,817.6666666666666,1779.6666666666667,181.0
ID469687172,21 Hamilton St,NIDDRIE,975000.0,h,13/08/2016,3,1.0,1.0,822.0,69.0,-37.7379,144.8854,20036,3295.52,27.0,0,101.0,365.3333333333333,28.333333333333332
ID898360562,138/56 Nicholson St,ABBOTSFORD,1090000.0,u,18/03/2017,3,2.0,2.0,4290.0,9.0,-37.8078,144.9965,19976,437.43,12.235294117647058,0,1214.6666666666667,5603.666666666667,375.3333333333333
ID952230950,1/3 Evans St,CHADSTONE,960000.0,u,15/07/2017,3,2.0,2.0,382.0,19.0,-37.88304,145.0969,19917,2071.76,29.35483870967742,0,1593.3333333333333,6648.333333333333,530.0
ID571977462,33 Disraeli St,KEW,1440000.0,h,27/11/2016,3,1.0,1.0,298.0,119.0,-37.8021,145.0391,19904,2168.52,15.666666666666666,0,369.3333333333333,971.0,95.33333333333333
